[{"OBJECT_NAME":"STARLINK-33574","OBJECT_ID":"2025-015S","EPOCH":"2026-03-09T22:48:53.752896","MEAN_MOTION":15.30212676,"ECCENTRICITY":0.00014023,"INCLINATION":53.1608,"RA_OF_ASC_NODE":321.0629,"ARG_OF_PERICENTER":149.6967,"MEAN_ANOMALY":210.4115,"EPHEMERIS_TYPE":0,"CLASSIFICATION_TYPE":"U","NORAD_CAT_ID":62774,"ELEMENT_SET_NO":999,"REV_AT_EPOCH":6424,"BSTAR":0.00091437723,"MEAN_MOTION_DOT":0.00026831,"MEAN_MOTION_DDOT":0},{"OBJECT_NAME":"SL-3 R\/B","OBJECT_ID":"1982-079B","EPOCH":"2026-03-09T22:18:18.158976","MEAN_MOTION":15.24805533,"ECCENTRICITY":0.00250364,"INCLINATION":81.1481,"RA_OF_ASC_NODE":192.7939,"ARG_OF_PERICENTER":164.0597,"MEAN_ANOMALY":196.143,"EPHEMERIS_TYPE":0,"CLASSIFICATION_TYPE":"U","NORAD_CAT_ID":13403,"ELEMENT_SET_NO":999,"REV_AT_EPOCH":37773,"BSTAR":0.00032485557,"MEAN_MOTION_DOT":8.157e-5,"MEAN_MOTION_DDOT":0}]
